[{"OBJECT_NAME":"STARLINK-2681","OBJECT_ID":"2021-040AP","EPOCH":"2026-03-10T00:00:02.999808","MEAN_MOTION":15.22826817,"ECCENTRICITY":0.00013659,"INCLINATION":53.1263,"RA_OF_ASC_NODE":189.7213,"ARG_OF_PERICENTER":84.1199,"MEAN_ANOMALY":307.7409,"EPHEMERIS_TYPE":0,"CLASSIFICATION_TYPE":"U","NORAD_CAT_ID":48465,"ELEMENT_SET_NO":999,"REV_AT_EPOCH":574,"BSTAR":0.066923917,"MEAN_MOTION_DOT":0.01734836,"MEAN_MOTION_DDOT":0},{"OBJECT_NAME":"GEOSCAN 5 (RS92S5)","OBJECT_ID":"2025-155R","EPOCH":"2026-03-09T22:01:07.273920","MEAN_MOTION":15.30265233,"ECCENTRICITY":0.00070849,"INCLINATION":97.4462,"RA_OF_ASC_NODE":37.7456,"ARG_OF_PERICENTER":154.5846,"MEAN_ANOMALY":205.5745,"EPHEMERIS_TYPE":0,"CLASSIFICATION_TYPE":"U","NORAD_CAT_ID":64891,"ELEMENT_SET_NO":999,"REV_AT_EPOCH":6562,"BSTAR":0.00068639307,"MEAN_MOTION_DOT":0.00020065,"MEAN_MOTION_DDOT":0}]
